{
  "links" : {
    "next" : "https://api.nasa.gov/neo/rest/v1/feed?start_date=1998-08-16&end_date=1998-08-16&detailed=true&api_key=t0TVs3DtDT2H8Oy2Zy8m2eVrNsAVKAexjcZXUckd",
    "prev" : "https://api.nasa.gov/neo/rest/v1/feed?start_date=1998-08-14&end_date=1998-08-14&detailed=true&api_key=t0TVs3DtDT2H8Oy2Zy8m2eVrNsAVKAexjcZXUckd",
    "self" : "https://api.nasa.gov/neo/rest/v1/feed?start_date=1998-08-15&end_date=1998-08-15&detailed=true&api_key=t0TVs3DtDT2H8Oy2Zy8m2eVrNsAVKAexjcZXUckd"
  },
  "element_count" : 7,
  "near_earth_objects" : {
    "1998-08-15" : [ {
      "links" : {
        "self" : "https://api.nasa.gov/neo/rest/v1/neo/3092285?api_key=t0TVs3DtDT2H8Oy2Zy8m2eVrNsAVKAexjcZXUckd"
      },
      "neo_reference_id" : "3092285",
      "name" : "(2001 BE16)",
      "nasa_jpl_url" : "http://ssd.jpl.nasa.gov/sbdb.cgi?sstr=3092285",
      "absolute_magnitude_h" : 19.8,
      "estimated_diameter" : {
        "kilometers" : {
          "estimated_diameter_min" : 0.2914439045,
          "estimated_diameter_max" : 0.6516883822
        },
        "meters" : {
          "estimated_diameter_min" : 291.4439045349,
          "estimated_diameter_max" : 651.6883821679
        },
        "miles" : {
          "estimated_diameter_min" : 0.1810947904,
          "estimated_diameter_max" : 0.4049402617
        },
        "feet" : {
          "estimated_diameter_min" : 956.1808197541,
          "estimated_diameter_max" : 2138.0853117517
        }
      },
      "is_potentially_hazardous_asteroid" : false,
      "close_approach_data" : [ {
        "close_approach_date" : "1998-08-15",
        "epoch_date_close_approach" : 903164400000,
        "relative_velocity" : {
          "kilometers_per_second" : "30.8205003804",
          "kilometers_per_hour" : "110953.8013693162",
          "miles_per_hour" : "68942.3773008398"
        },
        "miss_distance" : {
          "astronomical" : "0.3796583031",
          "lunar" : "147.6870880127",
          "kilometers" : "56796076",
          "miles" : "35291444"
        },
        "orbiting_body" : "Earth"
      } ],
      "orbital_data" : {
        "orbit_id" : "20",
        "orbit_determination_date" : "2017-04-06 09:16:34",
        "orbit_uncertainty" : "1",
        "minimum_orbit_intersection" : ".0627794",
        "jupiter_tisserand_invariant" : "4.841",
        "epoch_osculation" : "2458000.5",
        "eccentricity" : ".4039449816849848",
        "semi_major_axis" : "1.255014133935024",
        "inclination" : "39.38494381565249",
        "ascending_node_longitude" : "121.9286975545135",
        "orbital_period" : "513.5365417557296",
        "perihelion_distance" : ".7480574725882437",
        "perihelion_argument" : "106.1492459633498",
        "aphelion_distance" : "1.761970795281805",
        "perihelion_time" : "2458183.830098926757",
        "mean_anomaly" : "231.481715034359",
        "mean_motion" : ".7010211946538339",
        "equinox" : "J2000"
      }
    }, {
      "links" : {
        "self" : "https://api.nasa.gov/neo/rest/v1/neo/3144143?api_key=t0TVs3DtDT2H8Oy2Zy8m2eVrNsAVKAexjcZXUckd"
      },
      "neo_reference_id" : "3144143",
      "name" : "(2002 XT4)",
      "nasa_jpl_url" : "http://ssd.jpl.nasa.gov/sbdb.cgi?sstr=3144143",
      "absolute_magnitude_h" : 24.0,
      "estimated_diameter" : {
        "kilometers" : {
          "estimated_diameter_min" : 0.0421264611,
          "estimated_diameter_max" : 0.0941976306
        },
        "meters" : {
          "estimated_diameter_min" : 42.1264610556,
          "estimated_diameter_max" : 94.1976305719
        },
        "miles" : {
          "estimated_diameter_min" : 0.0261761612,
          "estimated_diameter_max" : 0.0585316759
        },
        "feet" : {
          "estimated_diameter_min" : 138.2101784897,
          "estimated_diameter_max" : 309.0473542854
        }
      },
      "is_potentially_hazardous_asteroid" : false,
      "close_approach_data" : [ {
        "close_approach_date" : "1998-08-15",
        "epoch_date_close_approach" : 903164400000,
        "relative_velocity" : {
          "kilometers_per_second" : "12.1897264108",
          "kilometers_per_hour" : "43883.0150787169",
          "miles_per_hour" : "27267.1990082172"
        },
        "miss_distance" : {
          "astronomical" : "0.1816115837",
          "lunar" : "70.6469039917",
          "kilometers" : "27168706",
          "miles" : "16881852"
        },
        "orbiting_body" : "Earth"
      } ],
      "orbital_data" : {
        "orbit_id" : "10",
        "orbit_determination_date" : "2017-04-06 09:14:34",
        "orbit_uncertainty" : "7",
        "minimum_orbit_intersection" : ".0190557",
        "jupiter_tisserand_invariant" : "4.232",
        "epoch_osculation" : "2458000.5",
        "eccentricity" : ".4228334993955715",
        "semi_major_axis" : "1.60936023205004",
        "inclination" : "7.510363242387514",
        "ascending_node_longitude" : "67.29229688331937",
        "orbital_period" : "745.724351551602",
        "perihelion_distance" : ".9288688133442529",
        "perihelion_argument" : "313.2191595906609",
        "aphelion_distance" : "2.289851650755828",
        "perihelion_time" : "2457792.667387097285",
        "mean_anomaly" : "100.3316312378732",
        "mean_motion" : ".4827521043814123",
        "equinox" : "J2000"
      }
    }, {
      "links" : {
        "self" : "https://api.nasa.gov/neo/rest/v1/neo/3605664?api_key=t0TVs3DtDT2H8Oy2Zy8m2eVrNsAVKAexjcZXUckd"
      },
      "neo_reference_id" : "3605664",
      "name" : "(2012 LT7)",
      "nasa_jpl_url" : "http://ssd.jpl.nasa.gov/sbdb.cgi?sstr=3605664",
      "absolute_magnitude_h" : 19.0,
      "estimated_diameter" : {
        "kilometers" : {
          "estimated_diameter_min" : 0.4212646106,
          "estimated_diameter_max" : 0.9419763057
        },
        "meters" : {
          "estimated_diameter_min" : 421.2646105562,
          "estimated_diameter_max" : 941.9763057186
        },
        "miles" : {
          "estimated_diameter_min" : 0.2617616123,
          "estimated_diameter_max" : 0.5853167591
        },
        "feet" : {
          "estimated_diameter_min" : 1382.1017848971,
          "estimated_diameter_max" : 3090.4735428537
        }
      },
      "is_potentially_hazardous_asteroid" : false,
      "close_approach_data" : [ {
        "close_approach_date" : "1998-08-15",
        "epoch_date_close_approach" : 903164400000,
        "relative_velocity" : {
          "kilometers_per_second" : "23.9865255761",
          "kilometers_per_hour" : "86351.4920740129",
          "miles_per_hour" : "53655.459061211"
        },
        "miss_distance" : {
          "astronomical" : "0.4859390245",
          "lunar" : "189.0302734375",
          "kilometers" : "72695448",
          "miles" : "45170856"
        },
        "orbiting_body" : "Earth"
      } ],
      "orbital_data" : {
        "orbit_id" : "19",
        "orbit_determination_date" : "2017-04-06 08:49:36",
        "orbit_uncertainty" : "1",
        "minimum_orbit_intersection" : ".455459",
        "jupiter_tisserand_invariant" : "5.258",
        "epoch_osculation" : "2458000.5",
        "eccentricity" : ".7602477576049493",
        "semi_major_axis" : "1.079450892677719",
        "inclination" : "42.24984777515083",
        "ascending_node_longitude" : "111.9263519427043",
        "orbital_period" : "409.6403811846392",
        "perihelion_distance" : ".2588007720748222",
        "perihelion_argument" : "358.5128505919012",
        "aphelion_distance" : "1.900101013280615",
        "perihelion_time" : "2458073.112870717807",
        "mean_anomaly" : "296.1863852806351",
        "mean_motion" : ".8788196099195977",
        "equinox" : "J2000"
      }
    } ]
  }
}